start=new Date('2021-12-17T00:00:00.000Z').valueOf();
sats=[{"CENTER_NAME":"EARTH","RCS_SIZE":"LARGE","APOAPSIS":"549.017","TIME_SYSTEM":"UTC","PERIOD":"95.592","LAUNCH_DATE":"2020-03-18","TLE_LINE1":"1 45371U 20019M   21350.47883782  .00000251  00000-0  35813-4 0  9992","EPHEMERIS_TYPE":"0","FILE":"3241867","PERIAPSIS":"545.425","ARG_OF_PERICENTER":"62.8017","EPOCH":"2021-12-16T11:29:31.587648","ECCENTRICITY":"0.00025930","GP_ID":"191826774","OBJECT_NAME":"STARLINK-1287","BSTAR":"0.00003581300000","DECAY_DATE":null,"SITE":"AFETR","MEAN_MOTION":"15.06397557","MEAN_MOTION_DDOT":"0.0000000000000","MEAN_MOTION_DOT":"0.00000251","MEAN_ELEMENT_THEORY":"SGP4","NORAD_CAT_ID":"45371","OBJECT_TYPE":"PAYLOAD","RA_OF_ASC_NODE":"258.8452","SEMIMAJOR_AXIS":"6925.356","REF_FRAME":"TEME","TLE_LINE2":"2 45371  53.0530 258.8452 0002593  62.8017 297.3236 15.06397557 96987","OBJECT_ID":"2020-019M","CLASSIFICATION_TYPE":"U","COUNTRY_CODE":"US","INCLINATION":"53.0530","MEAN_ANOMALY":"297.3236","REV_AT_EPOCH":"9698","ELEMENT_SET_NO":"999"},{"GP_ID":"191858164","ECCENTRICITY":"0.00023590","PERIAPSIS":"545.556","ARG_OF_PERICENTER":"68.4197","EPOCH":"2021-12-16T21:23:59.005824","PERIOD":"95.592","EPHEMERIS_TYPE":"0","TLE_LINE1":"1 45372U 20019N   21350.89165516  .00001926  00000-0  14815-3 0  9995","FILE":"3242223","LAUNCH_DATE":"2020-03-18","TIME_SYSTEM":"UTC","RCS_SIZE":"LARGE","APOAPSIS":"548.823","CENTER_NAME":"EARTH","ELEMENT_SET_NO":"999","REV_AT_EPOCH":"9704","MEAN_ANOMALY":"291.7043","INCLINATION":"53.0548","COUNTRY_CODE":"US","TLE_LINE2":"2 45372  53.0548 257.0063 0002359  68.4197 291.7043 15.06407930 97046","REF_FRAME":"TEME","CLASSIFICATION_TYPE":"U","OBJECT_ID":"2020-019N","SEMIMAJOR_AXIS":"6925.324","RA_OF_ASC_NODE":"257.0063","NORAD_CAT_ID":"45372","MEAN_MOTION_DOT":"0.00001926","MEAN_ELEMENT_THEORY":"SGP4","OBJECT_TYPE":"PAYLOAD","SITE":"AFETR","MEAN_MOTION":"15.06407930","DECAY_DATE":null,"MEAN_MOTION_DDOT":"0.0000000000000","OBJECT_NAME":"STARLINK-1288","BSTAR":"0.00014815000000"},{"PERIOD":"95.592","LAUNCH_DATE":"2020-03-18","TLE_LINE1":"1 45373U 20019P   21350.47515263  .00000242  00000-0  35179-4 0  9995","EPHEMERIS_TYPE":"0","FILE":"3241867","TIME_SYSTEM":"UTC","CENTER_NAME":"EARTH","APOAPSIS":"549.057","RCS_SIZE":"LARGE","GP_ID":"191826272","ECCENTRICITY":"0.00026590","PERIAPSIS":"545.374","ARG_OF_PERICENTER":"61.1194","EPOCH":"2021-12-16T11:24:13.187232","RA_OF_ASC_NODE":"258.8701","SEMIMAJOR_AXIS":"6925.351","MEAN_MOTION_DOT":"0.00000242","MEAN_ELEMENT_THEORY":"SGP4","NORAD_CAT_ID":"45373","OBJECT_TYPE":"PAYLOAD","DECAY_DATE":null,"MEAN_MOTION":"15.06399339","SITE":"AFETR","MEAN_MOTION_DDOT":"0.0000000000000","OBJECT_NAME":"STARLINK-1295","BSTAR":"0.00003517900000","ELEMENT_SET_NO":"999","MEAN_ANOMALY":"299.0061","REV_AT_EPOCH":"9698","COUNTRY_CODE":"US","INCLINATION":"53.0539","REF_FRAME":"TEME","TLE_LINE2":"2 45373  53.0539 258.8701 0002659  61.1194 299.0061 15.06399339 96981","OBJECT_ID":"2020-019P","CLASSIFICATION_TYPE":"U"},{"PERIOD":"95.592","LAUNCH_DATE":"2020-03-18","TLE_LINE1":"1 45374U 20019Q   21350.53781069  .00001209  00000-0  10010-3 0  9992","FILE":"3241867","EPHEMERIS_TYPE":"0","CENTER_NAME":"EARTH","APOAPSIS":"549.062","RCS_SIZE":"LARGE","TIME_SYSTEM":"UTC","ECCENTRICITY":"0.00026820","GP_ID":"191826023","PERIAPSIS":"545.347","EPOCH":"2021-12-16T12:54:26.843616","ARG_OF_PERICENTER":"65.7384","MEAN_MOTION_DOT":"0.00001209","MEAN_ELEMENT_THEORY":"SGP4","NORAD_CAT_ID":"45374","OBJECT_TYPE":"PAYLOAD","RA_OF_ASC_NODE":"258.5904","SEMIMAJOR_AXIS":"6925.339","OBJECT_NAME":"STARLINK-1300","BSTAR":"0.00010010000000","DECAY_DATE":null,"MEAN_MOTION":"15.06403064","SITE":"AFETR","MEAN_MOTION_DDOT":"0.0000000000000","MEAN_ANOMALY":"294.3885","REV_AT_EPOCH":"9699","ELEMENT_SET_NO":"999","TLE_LINE2":"2 45374  53.0538 258.5904 0002682  65.7384 294.3885 15.06403064 96994","REF_FRAME":"TEME","OBJECT_ID":"2020-019Q","CLASSIFICATION_TYPE":"U","COUNTRY_CODE":"US","INCLINATION":"53.0538"},{"BSTAR":"0.00001986200000","OBJECT_NAME":"STARLINK-1302","MEAN_MOTION_DDOT":"0.0000000000000","DECAY_DATE":null,"SITE":"AFETR","MEAN_MOTION":"15.06404850","OBJECT_TYPE":"PAYLOAD","MEAN_ELEMENT_THEORY":"SGP4","MEAN_MOTION_DOT":"0.00000014","NORAD_CAT_ID":"45375","RA_OF_ASC_NODE":"257.3387","SEMIMAJOR_AXIS":"6925.334","CLASSIFICATION_TYPE":"U","OBJECT_ID":"2020-019R","TLE_LINE2":"2 45375  53.0550 257.3387 0002403  65.2099 294.9140 15.06404850 97030","REF_FRAME":"TEME","COUNTRY_CODE":"US","INCLINATION":"53.0550","MEAN_ANOMALY":"294.9140","REV_AT_EPOCH":"9703","ELEMENT_SET_NO":"999","CENTER_NAME":"EARTH","RCS_SIZE":"LARGE","APOAPSIS":"548.863","TIME_SYSTEM":"UTC","LAUNCH_DATE":"2020-03-18","FILE":"3242223","TLE_LINE1":"1 45375U 20019R   21350.81793755  .00000014  00000-0  19862-4 0  9997","EPHEMERIS_TYPE":"0","PERIOD":"95.592","ARG_OF_PERICENTER":"65.2099","EPOCH":"2021-12-16T19:37:49.804320","PERIAPSIS":"545.535","ECCENTRICITY":"0.00024030","GP_ID":"191859916"},{"BSTAR":"-0.00002751200000","OBJECT_NAME":"STARLINK-1304","MEAN_MOTION_DDOT":"0.0000000000000","SITE":"AFETR","MEAN_MOTION":"15.06396966","DECAY_DATE":null,"OBJECT_TYPE":"PAYLOAD","NORAD_CAT_ID":"45376","MEAN_MOTION_DOT":"-0.00000692","MEAN_ELEMENT_THEORY":"SGP4","SEMIMAJOR_AXIS":"6925.358","RA_OF_ASC_NODE":"256.9552","CLASSIFICATION_TYPE":"U","OBJECT_ID":"2020-019S","TLE_LINE2":"2 45376  53.0549 256.9552 0002259  71.2028 288.9205 15.06396966 97040","REF_FRAME":"TEME","INCLINATION":"53.0549","COUNTRY_CODE":"US","REV_AT_EPOCH":"9704","MEAN_ANOMALY":"288.9205","ELEMENT_SET_NO":"999","RCS_SIZE":"LARGE","APOAPSIS":"548.787","CENTER_NAME":"EARTH","TIME_SYSTEM":"UTC","TLE_LINE1":"1 45376U 20019S   21350.90272206 -.00000692  00000-0 -27512-4 0  9996","FILE":"3242223","EPHEMERIS_TYPE":"0","LAUNCH_DATE":"2020-03-18","PERIOD":"95.592","ARG_OF_PERICENTER":"71.2028","EPOCH":"2021-12-16T21:39:55.185984","PERIAPSIS":"545.658","ECCENTRICITY":"0.00022590","GP_ID":"191858664"},{"RA_OF_ASC_NODE":"257.1312","SEMIMAJOR_AXIS":"6925.347","OBJECT_TYPE":"PAYLOAD","MEAN_MOTION_DOT":"0.00000942","MEAN_ELEMENT_THEORY":"SGP4","NORAD_CAT_ID":"45377","MEAN_MOTION_DDOT":"0.0000000000000","DECAY_DATE":null,"SITE":"AFETR","MEAN_MOTION":"15.06400385","BSTAR":"0.00008216900000","OBJECT_NAME":"STARLINK-1305","ELEMENT_SET_NO":"999","MEAN_ANOMALY":"292.6811","REV_AT_EPOCH":"9704","COUNTRY_CODE":"US","INCLINATION":"53.0535","OBJECT_ID":"2020-019T","CLASSIFICATION_TYPE":"U","TLE_LINE2":"2 45377  53.0535 257.1312 0002522  67.4444 292.6811 15.06400385 97041","REF_FRAME":"TEME","LAUNCH_DATE":"2020-03-18","FILE":"3242223","TLE_LINE1":"1 45377U 20019T   21350.86217016  .00000942  00000-0  82169-4 0  9995","EPHEMERIS_TYPE":"0","PERIOD":"95.592","TIME_SYSTEM":"UTC","CENTER_NAME":"EARTH","RCS_SIZE":"LARGE","APOAPSIS":"548.959","GP_ID":"191858914","ECCENTRICITY":"0.00025220","EPOCH":"2021-12-16T20:41:31.501824","ARG_OF_PERICENTER":"67.4444","PERIAPSIS":"545.466"},{"OBJECT_TYPE":"PAYLOAD","MEAN_MOTION_DOT":"0.00001374","MEAN_ELEMENT_THEORY":"SGP4","NORAD_CAT_ID":"45378","RA_OF_ASC_NODE":"257.7858","SEMIMAJOR_AXIS":"6925.341","BSTAR":"0.00011112000000","OBJECT_NAME":"STARLINK-1310","MEAN_MOTION_DDOT":"0.0000000000000","DECAY_DATE":null,"MEAN_MOTION":"15.06402497","SITE":"AFETR","MEAN_ANOMALY":"292.3406","REV_AT_EPOCH":"9702","ELEMENT_SET_NO":"999","CLASSIFICATION_TYPE":"U","OBJECT_ID":"2020-019U","REF_FRAME":"TEME","TLE_LINE2":"2 45378  53.0551 257.7858 0002439  67.7842 292.3406 15.06402497 97024","COUNTRY_CODE":"US","INCLINATION":"53.0551","LAUNCH_DATE":"2020-03-18","EPHEMERIS_TYPE":"0","TLE_LINE1":"1 45378U 20019U   21350.71841473  .00001374  00000-0  11112-3 0  9999","FILE":"3242223","PERIOD":"95.592","CENTER_NAME":"EARTH","APOAPSIS":"548.895","RCS_SIZE":"LARGE","TIME_SYSTEM":"UTC","ECCENTRICITY":"0.00024390","GP_ID":"191859666","ARG_OF_PERICENTER":"67.7842","EPOCH":"2021-12-16T17:14:31.032672","PERIAPSIS":"545.517"},{"REV_AT_EPOCH":"9705","MEAN_ANOMALY":"295.7656","ELEMENT_SET_NO":"999","REF_FRAME":"TEME","TLE_LINE2":"2 45379  53.0536 256.8691 0002408  64.3581 295.7656 15.06397714 97054","OBJECT_ID":"2020-019V","CLASSIFICATION_TYPE":"U","INCLINATION":"53.0536","COUNTRY_CODE":"US","NORAD_CAT_ID":"45379","MEAN_MOTION_DOT":"0.00000306","MEAN_ELEMENT_THEORY":"SGP4","OBJECT_TYPE":"PAYLOAD","SEMIMAJOR_AXIS":"6925.356","RA_OF_ASC_NODE":"256.8691","OBJECT_NAME":"STARLINK-1319","BSTAR":"0.00003946600000","SITE":"AFETR","MEAN_MOTION":"15.06397714","DECAY_DATE":null,"MEAN_MOTION_DDOT":"0.0000000000000","GP_ID":"191859417","ECCENTRICITY":"0.00024080","PERIAPSIS":"545.553","ARG_OF_PERICENTER":"64.3581","EPOCH":"2021-12-16T22:06:27.265824","PERIOD":"95.592","TLE_LINE1":"1 45379U 20019V   21350.92114891  .00000306  00000-0  39466-4 0  9997","EPHEMERIS_TYPE":"0","FILE":"3242223","LAUNCH_DATE":"2020-03-18","APOAPSIS":"548.888","RCS_SIZE":"LARGE","CENTER_NAME":"EARTH","TIME_SYSTEM":"UTC"},{"TLE_LINE1":"1 45380U 20019W   21350.91929778  .00002072  00000-0  15794-3 0  9995","FILE":"3242223","EPHEMERIS_TYPE":"0","LAUNCH_DATE":"2020-03-18","PERIOD":"95.592","TIME_SYSTEM":"UTC","APOAPSIS":"548.346","RCS_SIZE":"LARGE","CENTER_NAME":"EARTH","GP_ID":"191858165","ECCENTRICITY":"0.00016380","ARG_OF_PERICENTER":"84.6678","EPOCH":"2021-12-16T22:03:47.328192","PERIAPSIS":"546.077","SEMIMAJOR_AXIS":"6925.347","RA_OF_ASC_NODE":"236.8799","OBJECT_TYPE":"PAYLOAD","NORAD_CAT_ID":"45380","MEAN_ELEMENT_THEORY":"SGP4","MEAN_MOTION_DOT":"0.00002072","MEAN_MOTION_DDOT":"0.0000000000000","MEAN_MOTION":"15.06400648","SITE":"AFETR","DECAY_DATE":null,"BSTAR":"0.00015794000000","OBJECT_NAME":"STARLINK-1207","ELEMENT_SET_NO":"999","REV_AT_EPOCH":"9732","MEAN_ANOMALY":"275.4498","INCLINATION":"53.0527","COUNTRY_CODE":"US","CLASSIFICATION_TYPE":"U","OBJECT_ID":"2020-019W","REF_FRAME":"TEME","TLE_LINE2":"2 45380  53.0527 236.8799 0001638  84.6678 275.4498 15.06400648 97329"}];
